GSAT-10                 
1 38779U 12051B   26189.58723568 -.00000149  00000+0  00000+0 0  9996
2 38779   0.0370 245.6491 0007753 209.8848 125.3828  1.00268990 50311
INTELSAT 23 (IS-23)     
1 38867U 12057A   26190.32197634 -.00000271  00000+0  00000+0 0  9999
2 38867   0.0138  27.5034 0000418 189.0045 133.6672  1.00270076 50171
BEIDOU-2 G6             
1 38953U 12059A   26189.92091885 -.00000164  00000+0  00000+0 0  9993
2 38953   4.4729  73.2936 0008926 330.1279 298.9370  1.00268620 50127
LUCH-5B                 
1 38977U 12061A   26190.03792178 -.00000132  00000+0  00000+0 0  9994
2 38977  10.5276  49.6603 0003634 142.1553  92.5720  1.00271488 49821
YAMAL 300K              
1 38978U 12061B   26189.67836814  .00000086  00000+0  00000+0 0  9996
2 38978   0.0071 324.2105 0000447 286.6401 102.9436  1.00271919 49844
STAR ONE C3             
1 38991U 12062A   26190.26889149 -.00000236  00000+0  00000+0 0  9996
2 38991   0.0186  35.3691 0002227  88.3449 185.3153  1.00272274 49984
EUTELSAT 21B            
1 38992U 12062B   26190.28864119  .00000143  00000+0  00000+0 0  9995
2 38992   0.0646   1.5406 0003222 107.3526 303.8236  1.00271321 50049
ECHOSTAR 16             
1 39008U 12065A   26189.91513241 -.00000268  00000+0  00000+0 0  9991
2 39008   0.0165  34.5011 0002145  71.8537  88.4633  1.00271052 49868
ZHONGXING-12            
1 39017U 12067A   26190.10669520 -.00000192  00000+0  00000+0 0  9994
2 39017   0.0203 107.0962 0002881 354.4070 311.4559  1.00270324 49723
EUTELSAT 70B            
1 39020U 12069A   26190.22605356 -.00000029  00000+0  00000+0 0  9999
2 39020   0.0619 347.3910 0003600 120.5983 331.0535  1.00270922 49732
YAMAL 402               
1 39022U 12070A   26190.22328022  .00000098  00000+0  00000+0 0  9990
2 39022   1.3182  83.8861 0003645  23.6308 314.9286  1.00272472 49615
SKYNET 5D               
1 39034U 12075A   26190.22284689  .00000113  00000+0  00000+0 0  9996
2 39034   0.0700 343.9796 0003665 138.6943 297.4929  1.00274193 49386
MEXSAT 3                
1 39035U 12075B   26190.04715495 -.00000012  00000+0  00000+0 0  9990
2 39035   0.0321 267.2239 0000700 182.9307  99.0215  1.00275724  7276
TDRS 11                 
1 39070U 13004A   26190.28544716  .00000091  00000+0  00000+0 0  9990
2 39070   3.5531  31.6125 0004774  28.9046 155.1759  1.00277324 46916
AMAZONAS 3              
1 39078U 13006A   26190.32753146 -.00000269  00000+0  00000+0 0  9992
2 39078   0.0583 233.8294 0003301 280.0362 190.2819  1.00268268 45130
AZERSPACE 1             
1 39079U 13006B   26190.29263828  .00000147  00000+0  00000+0 0  9996
2 39079   0.0268 286.7199 0001909 221.6018 290.2591  1.00273003 49026
SBIRS GEO-2 (USA 241)   
1 39120U 13011A   26190.32197634 -.00000277  00000+0  00000+0 0  9999
2 39120   4.5362  52.5128 0002067  46.6908 254.1615  1.00271333 48756
EUTELSAT 117 WEST A     
1 39122U 13012A   26190.04672162  .00000001  00000+0  00000+0 0  9999
2 39122   0.0109  19.8841 0002702  93.7392  73.3746  1.00271718 48654
ANIK G1                 
1 39127U 13014A   26190.09503762 -.00000060  00000+0  00000+0 0  9996
2 39127   0.0516 261.7622 0001693 216.2387  95.9441  1.00271241 48473
ZHONGXING-11            
1 39157U 13020A   26190.30310631 -.00000277  00000+0  00000+0 0  9991
2 39157   0.0207  36.1404 0002369  47.0025  51.1354  1.00271609 48122
EUTELSAT 7B             
1 39163U 13022A   26190.29419885  .00000061  00000+0  00000+0 0  9999
2 39163   0.0640   0.0801 0003695  46.7248 353.3310  1.00271585 48163
WGS F5 (USA 243)        
1 39168U 13024A   26190.32197634  .00000000  00000+0  00000+0 0  9998
2 39168   0.0229  30.5705 0000364 200.9318 119.1660  1.00269206 47391
SES-6                   
1 39172U 13026A   26190.31642144 -.00000248  00000+0  00000+0 0  9990
2 39172   0.0164  13.8631 0002367  90.6525 256.1407  1.00269600 47945
IRNSS-1A                
1 39199U 13034A   26188.72632976  .00000061  00000+0  00000+0 0  9994
2 39199  35.7641  63.5758 0017575 183.3679 355.4225  1.00281056 47577
MUOS-2                  
1 39206U 13036A   26189.88999897 -.00000003  00000+0  00000+0 0  9998
2 39206   5.0375  45.5542 0052242 176.4683 197.1584  1.00271332 47417
ALPHASAT                
1 39215U 13038A   26190.21730019  .00000145  00000+0  00000+0 0  9994
2 39215   2.9992   1.1550 0002151 132.0059 257.0979  1.00269149 44249
INSAT-3D                
1 39216U 13038B   26190.30934634 -.00000327  00000+0  00000+0 0  9997
2 39216   1.9800  82.2636 0000503  71.6958  14.1825  1.00271431 47306
WGS F6 (USA 244)        
1 39222U 13041A   26189.97175418  .00000103  00000+0  00000+0 0  9997
2 39222   0.0192  36.4787 0001685 191.8050 273.2930  1.00270906 46282
ES'HAIL 1               
1 39233U 13044A   26190.28864119  .00000157  00000+0  00000+0 0  9990
2 39233   0.0469   6.2964 0002220 106.1486 304.1924  1.00272822 46849
GSAT-7                  
1 39234U 13044B   26190.17128253 -.00000063  00000+0  00000+0 0  9998
2 39234   0.1346  90.2043 0003082 177.9303 154.5937  1.00271231 45479
AMOS-4                  
1 39237U 13045A   26190.17475156  .00000021  00000+0  00000+0 0  9992
2 39237   0.0493 258.6183 0002328 176.2213 340.1940  1.00271754 47179
AEHF-3 (USA 246)        
1 39256U 13050A   26190.24142264  .00000038  00000+0  00000+0 0  9996
2 39256   5.3468  66.9836 0088291 187.6965 355.1610  1.00269574 45870
