OBJECT_NAME,OBJECT_ID,EPOCH,MEAN_MOTION,ECCENTRICITY,INCLINATION,RA_OF_ASC_NODE,ARG_OF_PERICENTER,MEAN_ANOMALY,EPHEMERIS_TYPE,CLASSIFICATION_TYPE,NORAD_CAT_ID,ELEMENT_SET_NO,REV_AT_EPOCH,BSTAR,MEAN_MOTION_DOT,MEAN_MOTION_DDOT
GSAT-10,2012-051B,2026-07-08T14:05:37.162752,1.00268990,.00077538,0.0370,245.6491,209.8848,125.3828,0,U,38779,999,5031,0,-.149E-5,0
INTELSAT 23 (IS-23),2012-057A,2026-07-09T07:43:38.755776,1.00270076,.00004189,0.0138,27.5034,189.0045,133.6672,0,U,38867,999,5017,0,-.271E-5,0
BEIDOU-2 G6,2012-059A,2026-07-08T22:06:07.388640,1.00268620,.00089268,4.4729,73.2936,330.1279,298.9370,0,U,38953,999,5012,0,-.164E-5,0
LUCH-5B,2012-061A,2026-07-09T00:54:36.441792,1.00271488,.00036343,10.5276,49.6603,142.1553,92.5720,0,U,38977,999,4982,0,-.132E-5,0
YAMAL 300K,2012-061B,2026-07-08T16:16:51.007296,1.00271919,.0000447,0.0071,324.2105,286.6401,102.9436,0,U,38978,999,4984,0,.86E-6,0
STAR ONE C3,2012-062A,2026-07-09T06:27:12.224736,1.00272274,.00022276,0.0186,35.3691,88.3449,185.3153,0,U,38991,999,4998,0,-.236E-5,0
EUTELSAT 21B,2012-062B,2026-07-09T06:55:38.598816,1.00271321,.00032226,0.0646,1.5406,107.3526,303.8236,0,U,38992,999,5004,0,.143E-5,0
ECHOSTAR 16,2012-065A,2026-07-08T21:57:47.440224,1.00271052,.0002145,0.0165,34.5011,71.8537,88.4633,0,U,39008,999,4986,0,-.268E-5,0
ZHONGXING-12,2012-067A,2026-07-09T02:33:38.465280,1.00270324,.00028816,0.0203,107.0962,354.4070,311.4559,0,U,39017,999,4972,0,-.192E-5,0
EUTELSAT 70B,2012-069A,2026-07-09T05:25:31.027584,1.00270922,.00036009,0.0619,347.3910,120.5983,331.0535,0,U,39020,999,4973,0,-.29E-6,0
YAMAL 402,2012-070A,2026-07-09T05:21:31.411008,1.00272472,.00036459,1.3182,83.8861,23.6308,314.9286,0,U,39022,999,4961,0,.98E-6,0
SKYNET 5D,2012-075A,2026-07-09T05:20:53.971296,1.00274193,.00036651,0.0700,343.9796,138.6943,297.4929,0,U,39034,999,4938,0,.113E-5,0
MEXSAT 3,2012-075B,2026-07-09T01:07:54.187680,1.00275724,.00007007,0.0321,267.2239,182.9307,99.0215,0,U,39035,999,727,0,-.12E-6,0
TDRS 11,2013-004A,2026-07-09T06:51:02.634624,1.00277324,.0004774,3.5531,31.6125,28.9046,155.1759,0,U,39070,999,4691,0,.91E-6,0
AMAZONAS 3,2013-006A,2026-07-09T07:51:38.718144,1.00268268,.00033017,0.0583,233.8294,280.0362,190.2819,0,U,39078,999,4513,0,-.269E-5,0
AZERSPACE 1,2013-006B,2026-07-09T07:01:23.947392,1.00273003,.00019095,0.0268,286.7199,221.6018,290.2591,0,U,39079,999,4902,0,.147E-5,0
SBIRS GEO-2 (USA 241),2013-011A,2026-07-09T07:43:38.755776,1.00271333,.00020672,4.5362,52.5128,46.6908,254.1615,0,U,39120,999,4875,0,-.277E-5,0
EUTELSAT 117 WEST A,2013-012A,2026-07-09T01:07:16.747968,1.00271718,.00027029,0.0109,19.8841,93.7392,73.3746,0,U,39122,999,4865,0,.1E-7,0
ANIK G1,2013-014A,2026-07-09T02:16:51.250368,1.00271241,.00016934,0.0516,261.7622,216.2387,95.9441,0,U,39127,999,4847,0,-.6E-6,0
ZHONGXING-11,2013-020A,2026-07-09T07:16:28.385184,1.00271609,.00023699,0.0207,36.1404,47.0025,51.1354,0,U,39157,999,4812,0,-.277E-5,0
EUTELSAT 7B,2013-022A,2026-07-09T07:03:38.780640,1.00271585,.00036956,0.0640,0.0801,46.7248,353.3310,0,U,39163,999,4816,0,.61E-6,0
WGS F5 (USA 243),2013-024A,2026-07-09T07:43:38.755776,1.00269206,.00003646,0.0229,30.5705,200.9318,119.1660,0,U,39168,999,4739,0,0,0
SES-6,2013-026A,2026-07-09T07:35:38.812416,1.00269600,.0002367,0.0164,13.8631,90.6525,256.1407,0,U,39172,999,4794,0,-.248E-5,0
IRNSS-1A,2013-034A,2026-07-07T17:25:54.891264,1.00281056,.00175755,35.7641,63.5758,183.3679,355.4225,0,U,39199,999,4757,0,.61E-6,0
MUOS-2,2013-036A,2026-07-08T21:21:35.911008,1.00271332,.00522424,5.0375,45.5542,176.4683,197.1584,0,U,39206,999,4741,0,-.3E-7,0
ALPHASAT,2013-038A,2026-07-09T05:12:54.736416,1.00269149,.00021516,2.9992,1.1550,132.0059,257.0979,0,U,39215,999,4424,0,.145E-5,0
INSAT-3D,2013-038B,2026-07-09T07:25:27.523776,1.00271431,.00005037,1.9800,82.2636,71.6958,14.1825,0,U,39216,999,4730,0,-.327E-5,0
WGS F6 (USA 244),2013-041A,2026-07-08T23:19:19.561152,1.00270906,.00016855,0.0192,36.4787,191.8050,273.2930,0,U,39222,999,4628,0,.103E-5,0
ES'HAIL 1,2013-044A,2026-07-09T06:55:38.598816,1.00272822,.00022209,0.0469,6.2964,106.1486,304.1924,0,U,39233,999,4684,0,.157E-5,0
GSAT-7,2013-044B,2026-07-09T04:06:38.810592,1.00271231,.00030828,0.1346,90.2043,177.9303,154.5937,0,U,39234,999,4547,0,-.63E-6,0
AMOS-4,2013-045A,2026-07-09T04:11:38.534784,1.00271754,.00023282,0.0493,258.6183,176.2213,340.1940,0,U,39237,999,4717,0,.21E-6,0
AEHF-3 (USA 246),2013-050A,2026-07-09T05:47:38.916096,1.00269574,.00882912,5.3468,66.9836,187.6965,355.1610,0,U,39256,999,4587,0,.38E-6,0
